{
    "links": {
        "self": "http://www.neowsapp.com/rest/v1/neo/3759778?api_key=iIulBulltgU6a56xZRHN4H3l9WmuAYTsLGpBGhQ2"
    },
    "id": "3759778",
    "neo_reference_id": "3759778",
    "name": "(2016 SW3)",
    "designation": "2016 SW3",
    "nasa_jpl_url": "http://ssd.jpl.nasa.gov/sbdb.cgi?sstr=3759778",
    "absolute_magnitude_h": 28.3,
    "estimated_diameter": {
        "kilometers": {
            "estimated_diameter_min": 0.0058150704,
            "estimated_diameter_max": 0.0130028927
        },
        "meters": {
            "estimated_diameter_min": 5.8150703965,
            "estimated_diameter_max": 13.0028927004
        },
        "miles": {
            "estimated_diameter_min": 0.0036133161,
            "estimated_diameter_max": 0.0080796204
        },
        "feet": {
            "estimated_diameter_min": 19.0783155595,
            "estimated_diameter_max": 42.6604104873
        }
    },
    "is_potentially_hazardous_asteroid": false,
    "close_approach_data": [
        {
            "close_approach_date": "2003-10-28",
            "close_approach_date_full": "2003-Oct-28 05:47",
            "epoch_date_close_approach": 1067320020000,
            "relative_velocity": {
                "kilometers_per_second": "20.7967481741",
                "kilometers_per_hour": "74868.2934266196",
                "miles_per_hour": "46520.2459905571"
            },
            "miss_distance": {
                "astronomical": "0.3634505546",
                "lunar": "141.3822657394",
                "kilometers": "54371428.818478702",
                "miles": "33784839.2439900076"
            },
            "orbiting_body": "Earth"
        },
        {
            "close_approach_date": "2016-09-26",
            "close_approach_date_full": "2016-Sep-26 04:52",
            "epoch_date_close_approach": 1474865520000,
            "relative_velocity": {
                "kilometers_per_second": "10.3288013273",
                "kilometers_per_hour": "37183.6847783603",
                "miles_per_hour": "23104.4956890873"
            },
            "miss_distance": {
                "astronomical": "0.0025744759",
                "lunar": "1.0014711251",
                "kilometers": "385136.111006333",
                "miles": "239312.4823120754"
            },
            "orbiting_body": "Earth"
        },
        {
            "close_approach_date": "2016-09-26",
            "close_approach_date_full": "2016-Sep-26 05:25",
            "epoch_date_close_approach": 1474867500000,
            "relative_velocity": {
                "kilometers_per_second": "11.2206222255",
                "kilometers_per_hour": "40394.2400116441",
                "miles_per_hour": "25099.4098561241"
            },
            "miss_distance": {
                "astronomical": "0.0041835072",
                "lunar": "1.6273843008",
                "kilometers": "625843.766249664",
                "miles": "388881.2836828032"
            },
            "orbiting_body": "Moon"
        }
    ],
    "orbital_data": {
        "orbit_id": "2",
        "orbit_determination_date": "2017-04-06 08:23:34",
        "first_observation_date": "2016-09-27",
        "last_observation_date": "2016-09-28",
        "data_arc_in_days": 1,
        "observations_used": 24,
        "orbit_uncertainty": "6",
        "minimum_orbit_intersection": ".00317791",
        "jupiter_tisserand_invariant": "3.442",
        "epoch_osculation": "2459000.5",
        "eccentricity": ".5602050861919305",
        "semi_major_axis": "2.191568880585801",
        "inclination": "6.664830586591926",
        "ascending_node_longitude": "4.316417680032886",
        "orbital_period": "1185.034827942754",
        "perihelion_distance": ".9638408469416798",
        "perihelion_argument": "331.4826727281877",
        "aphelion_distance": "3.419296914229923",
        "perihelion_time": "2458820.464315201672",
        "mean_anomaly": "54.69277779785988",
        "mean_motion": ".3037885398060137",
        "equinox": "J2000",
        "orbit_class": {
            "orbit_class_type": "APO",
            "orbit_class_description": "Near-Earth asteroid orbits which cross the Earth’s orbit similar to that of 1862 Apollo",
            "orbit_class_range": "a (semi-major axis) > 1.0 AU; q (perihelion) < 1.017 AU"
        }
    },
    "is_sentry_object": false
}